HST                     
1 20580U 90037B   26182.74633530  .00007715  00000+0  24320-3 0  9997
2 20580  28.4737 341.0598 0001544 324.3988  35.6505 15.30920354790809
POLAR                   
1 23802U 96013A   26181.90122648  .00000200  00000+0  00000+0 0  9994
2 23802  79.8715 226.8903 6484175 208.6086  90.7324  1.29846086145031
SWAS                    
1 25560U 98071A   26182.72519253  .00002259  00000+0  14635-3 0  9995
2 25560  69.8937 190.0259 0008431 245.6860 114.3424 15.09690549499464
CXO                     
1 25867U 99040B   26185.24501744  .00000765  00000+0  00000+0 0  9995
2 25867  56.3727 116.2458 7810468 310.0498   0.5720  0.37797064 17382
XMM-NEWTON              
1 25989U 99066A   26181.31376484  .00000075  00000+0  00000+0 0  9997
2 25989  64.4187 282.8185 4670815  64.6474   0.0796  0.50127122 23075
TERRA                   
1 25994U 99068A   26182.89947714  .00000448  00000+0  10011-3 0  9990
2 25994  97.9448 231.8619 0002699 150.2199  23.0372 14.61114918411756
CLUSTER II-FM7 (SAMBA)  
1 26410U 00041A   26183.75752675  .00012787  00000+0  00000+0 0  9995
2 26410 149.8840  53.4423 9072869 270.8480 359.6360  0.44834504 20376
CLUSTER II-FM8 (TANGO)  
1 26464U 00045B   26181.94601251  .00015784  00000+0  00000+0 0  9990
2 26464 150.1096  54.2616 9074787 271.4997   2.3331  0.44420098 20376
ODIN                    
1 26702U 01007A   26182.86522818  .00294616  00000+0  14190-2 0  9998
2 26702  97.3781 224.8063 0005915 135.7816 224.3926 15.81828503391710
TIMED                   
1 26998U 01055B   26182.79403792  .00001025  00000+0  96584-4 0  9998
2 26998  74.0662 205.6072 0001829 315.4602  44.6435 14.95321362333005
CORIOLIS                
1 27640U 03001A   26182.92436285  .00000106  00000+0  70529-4 0  9994
2 27640  98.7127 189.5842 0014236 165.7703 194.3878 14.19948811216316
SORCE                   
1 27651U 03004A   26182.68384991  .00002685  00000+0  20235-3 0  9990
2 27651  39.9888 178.9637 0016950 160.2999 199.8453 15.03779126274087
MOST                    
1 27843U 03031D   26182.92419780  .00000064  00000+0  49590-4 0  9990
2 27843  98.7044 190.4443 0009309 203.8347 156.2401 14.21325456192803
SCISAT 1                
1 27858U 03036A   26182.94702685  .00000674  00000+0  90688-4 0  9993
2 27858  73.9294 142.0169 0008018 211.8227 148.2466 14.81464830233636
SWIFT                   
1 28485U 04047A   26182.93701665  .00063474  00000+0  49775-3 0  9996
2 28485  20.5532  71.0031 0000875 155.3516 204.6972 15.69777313189180
HINODE (SOLAR-B)        
1 29479U 06041A   26182.96990235  .00000769  00000+0  14051-3 0  9999
2 29479  98.0543 198.9043 0016167 238.6388 121.3236 14.68643327 57043
SHIJIAN-6 02A (SJ-6 02A)
1 29505U 06046A   26182.99864978  .00006732  00000+0  34297-3 0  9991
2 29505  97.6346 224.1767 0004671  93.0164 267.1604 15.17112282 74511
SHIJIAN-6 02B (SJ-6 02B)
1 29506U 06046B   26182.94186418  .00000922  00000+0  76086-4 0  9991
2 29506  97.7149 211.9093 0014944  18.4284 341.7479 15.01411052 72953
FGRST (GLAST)           
1 33053U 08029A   26182.17522149  .00003318  00000+0  11946-3 0  9991
2 33053  25.5819 107.3482 0008450 129.6925 230.4359 15.24008432997978
SDO                     
1 36395U 10005A   26181.24558567 -.00000090  00000+0  00000+0 0  9990
2 36395  34.6771  86.1450 0001493  51.4419 126.9147  1.00270579 60198
CRYOSAT 2               
1 36508U 10013A   26182.89932493  .00000114  00000+0  27690-4 0  9996
2 36508  92.0362 280.8780 0002197  96.8014 263.3443 14.51903336860213
X-SAT                   
1 37389U 11015C   26182.89842247  .00000120  00000+0  68683-4 0  9998
2 37389  98.3514 159.2215 0013012 303.5793  56.4144 14.25210748789770
GCOM-W1 (SHIZUKU)       
1 38337U 12025A   26182.79056258  .00000486  00000+0  11786-3 0  9998
2 38337  98.2022 123.1252 0001565  68.3364 321.4641 14.57138021751165
NUSTAR                  
1 38358U 12031A   26183.00002315  .00008169  00000+0  44870-3 0  9994
2 38358   6.0276 283.0395 0008655 321.0579 169.6638 15.08943913  1307
NEOSSAT                 
1 39089U 13009D   26182.91335247  .00000154  00000+0  67868-4 0  9993
2 39089  98.4182   2.5962 0010608 196.5800 163.5041 14.35831591698857
BRITE-AUSTRIA           
1 39091U 13009F   26182.76534719  .00000185  00000+0  77360-4 0  9996
2 39091  98.4000   1.8406 0009910 189.9441 170.1551 14.36547861699143
IRIS                    
1 39197U 13033A   26182.50840266  .00001065  00000+0  12805-3 0  9999
2 39197  97.9321  21.7403 0022955 272.4899  87.3688 14.85913247702501
HISAKI (SPRINT-A)       
1 39253U 13049A   26182.93233307  .00000085  00000+0  27765-4 0  9991
2 39253  29.7179 145.0429 0136879 136.3971 224.7508 13.55545809633429
CASSIOPE                
1 39265U 13055A   26182.91651187  .00048795 -28088-6  52682-3 0  9998
2 39265  80.9128  48.8164 0287092  12.8793 347.9569 15.26543199669913
STSAT-3                 
1 39422U 13066G   26182.96107992  .00002761  00000+0  21042-3 0  9995
2 39422  97.6215 152.6117 0009623 359.4614   0.6599 15.02835085686429
SWARM B                 
1 39451U 13067A   26182.92898249  .00003920  00000+0  13958-3 0  9991
2 39451  87.7451 337.8369 0002842  80.4896 279.6674 15.28643193685491
