OBJECT_NAME,OBJECT_ID,EPOCH,MEAN_MOTION,ECCENTRICITY,INCLINATION,RA_OF_ASC_NODE,ARG_OF_PERICENTER,MEAN_ANOMALY,EPHEMERIS_TYPE,CLASSIFICATION_TYPE,NORAD_CAT_ID,ELEMENT_SET_NO,REV_AT_EPOCH,BSTAR,MEAN_MOTION_DOT,MEAN_MOTION_DDOT
HST,1990-037B,2026-07-01T17:54:43.369920,15.30920354,.00015447,28.4737,341.0598,324.3988,35.6505,0,U,20580,999,79080,.24319917E-3,.7715E-4,0
POLAR,1996-013A,2026-06-30T21:37:45.967872,1.29846086,.64841756,79.8715,226.8903,208.6086,90.7324,0,U,23802,999,14503,0,.2E-5,0
SWAS,1998-071A,2026-07-01T17:24:16.634592,15.09690549,.00084314,69.8937,190.0259,245.6860,114.3424,0,U,25560,999,49946,.14635138E-3,.2259E-4,0
CXO,1999-040B,2026-07-04T05:52:49.506816,0.37797064,.7810468,56.3727,116.2458,310.0498,0.5720,0,U,25867,999,1738,0,.765E-5,0
XMM-NEWTON,1999-066A,2026-06-30T07:31:49.282176,0.50127122,.46708159,64.4187,282.8185,64.6474,0.0796,0,U,25989,999,2307,0,.75E-6,0
TERRA,1999-068A,2026-07-01T21:35:14.824896,14.61114918,.0002699,97.9448,231.8619,150.2199,23.0372,0,U,25994,999,41175,.10011493E-3,.448E-5,0
CLUSTER II-FM7 (SAMBA),2000-041A,2026-07-02T18:10:50.311200,0.44834504,.90728696,149.8840,53.4423,270.8480,359.6360,0,U,26410,999,2037,0,.12787E-3,0
CLUSTER II-FM8 (TANGO),2000-045B,2026-06-30T22:42:15.480864,0.44420098,.90747877,150.1096,54.2616,271.4997,2.3331,0,U,26464,999,2037,0,.15784E-3,0
ODIN,2001-007A,2026-07-01T20:45:55.714752,15.81828503,.00059151,97.3781,224.8063,135.7816,224.3926,0,U,26702,999,39171,.1419036E-2,.294616E-2,0
TIMED,2001-055B,2026-07-01T19:03:24.876288,14.95321362,.00018293,74.0662,205.6072,315.4602,44.6435,0,U,26998,999,33300,.96583932E-4,.1025E-4,0
CORIOLIS,2003-001A,2026-07-01T22:11:04.950240,14.19948811,.0014236,98.7127,189.5842,165.7703,194.3878,0,U,27640,999,21631,.7052923E-4,.106E-5,0
SORCE,2003-004A,2026-07-01T16:24:44.632224,15.03779126,.00169505,39.9888,178.9637,160.2999,199.8453,0,U,27651,999,27408,.20235256E-3,.2685E-4,0
MOST,2003-031D,2026-07-01T22:10:50.689920,14.21325456,.00093091,98.7044,190.4443,203.8347,156.2401,0,U,27843,999,19280,.4958985E-4,.64E-6,0
SCISAT 1,2003-036A,2026-07-01T22:43:43.119840,14.81464830,.00080183,73.9294,142.0169,211.8227,148.2466,0,U,27858,999,23363,.90687579E-4,.674E-5,0
SWIFT,2004-047A,2026-07-01T22:29:18.238560,15.69777313,.00008759,20.5532,71.0031,155.3516,204.6972,0,U,28485,999,18918,.49774901E-3,.63474E-3,0
HINODE (SOLAR-B),2006-041A,2026-07-01T23:16:39.563040,14.68643327,.0016167,98.0543,198.9043,238.6388,121.3236,0,U,29479,999,5704,.14051086E-3,.769E-5,0
SHIJIAN-6 02A (SJ-6 02A),2006-046A,2026-07-01T23:58:03.340992,15.17112282,.00046712,97.6346,224.1767,93.0164,267.1604,0,U,29505,999,7451,.34297319E-3,.6732E-4,0
SHIJIAN-6 02B (SJ-6 02B),2006-046B,2026-07-01T22:36:17.065152,15.01411052,.00149444,97.7149,211.9093,18.4284,341.7479,0,U,29506,999,7295,.76086166E-4,.922E-5,0
FGRST (GLAST),2008-029A,2026-07-01T04:12:19.136736,15.24008432,.000845,25.5819,107.3482,129.6925,230.4359,0,U,33053,999,99797,.11946E-3,.3318E-4,0
SDO,2010-005A,2026-06-30T05:53:38.601888,1.00270579,.00014936,34.6771,86.1450,51.4419,126.9147,0,U,36395,999,6019,0,-.9E-6,0
CRYOSAT 2,2010-013A,2026-07-01T21:35:01.673952,14.51903336,.00021975,92.0362,280.8780,96.8014,263.3443,0,U,36508,999,86021,.27689592E-4,.114E-5,0
X-SAT,2011-015C,2026-07-01T21:33:43.701408,14.25210748,.00130125,98.3514,159.2215,303.5793,56.4144,0,U,37389,999,78977,.68682964E-4,.12E-5,0
GCOM-W1 (SHIZUKU),2012-025A,2026-07-01T18:58:24.606912,14.57138021,.0001565,98.2022,123.1252,68.3364,321.4641,0,U,38337,999,75116,.11785614E-3,.486E-5,0
NUSTAR,2012-031A,2026-07-02T00:00:02.000160,15.08943913,.00086555,6.0276,283.0395,321.0579,169.6638,0,U,38358,999,130,.44870009E-3,.8169E-4,0
NEOSSAT,2013-009D,2026-07-01T21:55:13.653408,14.35831591,.00106082,98.4182,2.5962,196.5800,163.5041,0,U,39089,999,69885,.67867979E-4,.154E-5,0
BRITE-AUSTRIA,2013-009F,2026-07-01T18:22:05.997216,14.36547861,.00099107,98.4000,1.8406,189.9441,170.1551,0,U,39091,999,69914,.77359982E-4,.185E-5,0
IRIS,2013-033A,2026-07-01T12:12:05.989824,14.85913247,.00229557,97.9321,21.7403,272.4899,87.3688,0,U,39197,999,70250,.12804517E-3,.1065E-4,0
HISAKI (SPRINT-A),2013-049A,2026-07-01T22:22:33.577248,13.55545809,.01368796,29.7179,145.0429,136.3971,224.7508,0,U,39253,999,63342,.27764964E-4,.85E-6,0
CASSIOPE,2013-055A,2026-07-01T21:59:46.625568,15.26543199,.02870922,80.9128,48.8164,12.8793,347.9569,0,U,39265,999,66991,.52682439E-3,.48795E-3,-.280877E-6
STSAT-3,2013-066G,2026-07-01T23:03:57.305088,15.02835085,.00096232,97.6215,152.6117,359.4614,0.6599,0,U,39422,999,68642,.21042301E-3,.2761E-4,0
SWARM B,2013-067A,2026-07-01T22:17:44.087136,15.28643193,.00028429,87.7451,337.8369,80.4896,279.6674,0,U,39451,999,68549,.13958308E-3,.392E-4,0
